STARLINK-37893          
1 69486U 26131J   26171.25002315 -.01194236  41760-3 -36756-2 0  9999
2 69486  97.2832 191.6797 0001005  68.3196   4.1782 15.91826006  2580
STARLINK-37842          
1 69487U 26131K   26171.25002315 -.01194477  41817-3 -36577-2 0  9991
2 69487  97.2832 191.6811 0000979  78.2523 357.0965 15.91925386  2507
STARLINK-37449          
1 69488U 26131L   26171.25002315 -.01203756  42465-3 -36667-2 0  9993
2 69488  97.2833 191.6822 0001010  71.3107   6.9866 15.92029554  2592
STARLINK-37831          
1 69489U 26131M   26171.25002315 -.01217739  43429-3 -36898-2 0  9997
2 69489  97.2832 191.6832 0001029  70.2784  11.1314 15.92134218  1300
STARLINK-37879          
1 69490U 26131N   26171.25002315 -.01221733  43738-3 -36824-2 0  9990
2 69490  97.2832 191.6845 0001054  70.2748  13.8030 15.92237303  2500
STARLINK-37856          
1 69491U 26131P   26171.25002315 -.02451436  16135-2 -74188-2 0  9992
2 69491  97.2834 191.6854 0001086  77.9864   9.0790 15.92303156  2567
STARLINK-37568          
1 69492U 26131Q   26171.25002315 -.01236994  44847-3 -36895-2 0  9997
2 69492  97.2832 191.6868 0001041  71.1772  18.5707 15.92442964  2593
STARLINK-37855          
1 69493U 26131R   26171.25002315 -.00766321  18423-3 -22709-2 0  9999
2 69493  97.2830 191.6882 0000958  73.7644  19.2945 15.92503348  2563
STARLINK-37854          
1 69494U 26131S   26171.25002315 -.02442449  16074-2 -72760-2 0  9995
2 69494  97.2828 191.6892 0001099  78.2679  18.0507 15.92608040  2563
STARLINK-37789          
1 69495U 26131T   26171.25002315 -.01275585  47617-3 -37464-2 0  9990
2 69495  97.2830 191.6906 0001049  75.7410  23.4882 15.92746356  2584
STARLINK-37839          
1 69496U 26131U   26171.25002315 -.02441978  16123-2 -71611-2 0  9992
2 69496  97.2828 191.6929 0001221  71.5417  33.0042 15.92911097  2569
STARLINK-37798          
1 69497U 26131V   26171.25002315 -.01279401  47882-3 -37574-2 0  9999
2 69497  97.2830 191.6910 0001078  69.4019  29.8259 15.92748125  2560
STARLINK-37853          
1 69498U 26131W   26171.25002315 -.01276221  47950-3 -36340-2 0  9993
2 69498  97.2828 191.6967 0001037  76.9749  37.0164 15.93342752  2561
STARLINK-37849          
1 69499U 26131X   26171.25002315 -.01277418  47984-3 -36564-2 0  9998
2 69499  97.2829 191.6962 0001035  81.0229  30.8313 15.93242996  2584
STARLINK-37835          
1 69500U 26131Y   26171.25002315 -.01286824  48642-3 -36828-2 0  9997
2 69500  97.2828 191.6970 0001040  81.4051  30.4478 15.93247052  1493
STARLINK-37843          
1 69501U 26131Z   26171.25002315 -.01281884  48247-3 -36882-2 0  9990
2 69501  97.2829 191.6950 0001059  70.5107  38.9654 15.93143837  2568
2026-132A               
1 69502U 26132A   26171.15890401  .00000519  00000+0  47592-4 0  9996
2 69502  97.6900 234.7958 0012745 259.4184 100.5603 14.99047776  1229
2026-132B               
1 69503U 26132B   26171.15841448  .00000318  00000+0  31001-4 0  9999
2 69503  97.6931 234.7997 0012638 261.6727  98.3063 14.99136734  1223
BRO-22                  
1 69504U 26132C   26171.15504713  .00000454  00000+0  41516-4 0  9994
2 69504  97.6869 234.7957 0014157 273.2873  86.6731 14.99760987  1224
2026-132D               
1 69505U 26132D   26170.81161664  .00001487  00000+0  11596-3 0  9992
2 69505  97.6854 234.4687 0014591 281.9794  77.9795 15.02642594  1171
2026-132E               
1 69506U 26132E   26171.14903002  .00001588  00000+0  12933-3 0  9998
2 69506  97.6900 234.8097 0012746 295.9323  64.0587 15.00887880  1214
2026-132F               
1 69507U 26132F   26170.81287666  .00000054  00000+0  87766-5 0  9998
2 69507  97.6860 234.4660 0013296 296.3475  63.6384 15.01929219  1164
STARLINK-37536          
1 69508U 26133A   26171.25002315 -.01767067  92653-3 -36476-2 0  9990
2 69508  53.1585 307.0915 0000821  68.2370  37.2340 15.98678544  2467
STARLINK-37341          
1 69509U 26133B   26171.25002315 -.01769016  93138-3 -35926-2 0  9995
2 69509  53.1586 307.0815 0000712  65.2813  44.9880 15.98968372  2461
STARLINK-36536          
1 69510U 26133C   26171.25002315 -.01751389  91766-3 -34884-2 0  9998
2 69510  53.1585 307.0707 0000716  76.2864  39.2583 15.99309594  2401
STARLINK-37420          
1 69511U 26133D   26171.25002315 -.01730543  90513-3 -32991-2 0  9994
2 69511  53.1580 307.0467 0000692  75.4876  51.3566 16.00075895  2354
STARLINK-37511          
1 69512U 26133E   26171.25002315 -.01737664  90830-3 -33839-2 0  9990
2 69512  53.1584 307.0588 0000708  71.7720  49.5407 15.99704290  2356
STARLINK-37552          
1 69513U 26133F   26171.25002315 -.01722940  90105-3 -32234-2 0  9995
2 69513  53.1580 307.0366 0000716  78.1198  53.8337 16.00403141  2350
STARLINK-37607          
1 69514U 26133G   26171.25002315 -.01717493  89806-3 -31711-2 0  9998
2 69514  53.1582 307.0273 0000811  66.3345  69.8584 16.00631170  2355
