OBJECT_NAME,OBJECT_ID,EPOCH,MEAN_MOTION,ECCENTRICITY,INCLINATION,RA_OF_ASC_NODE,ARG_OF_PERICENTER,MEAN_ANOMALY,EPHEMERIS_TYPE,CLASSIFICATION_TYPE,NORAD_CAT_ID,ELEMENT_SET_NO,REV_AT_EPOCH,BSTAR,MEAN_MOTION_DOT,MEAN_MOTION_DDOT
STARLINK-37893,2026-131J,2026-06-20T06:00:02.000160,15.91826006,.00010057,97.2832,191.6797,68.3196,4.1782,0,U,69486,999,258,-.36756413E-2,-.1194236E-1,.41759978E-3
STARLINK-37842,2026-131K,2026-06-20T06:00:02.000160,15.91925386,.00009795,97.2832,191.6811,78.2523,357.0965,0,U,69487,999,250,-.36577132E-2,-.1194477E-1,.41817001E-3
STARLINK-37449,2026-131L,2026-06-20T06:00:02.000160,15.92029554,.00010108,97.2833,191.6822,71.3107,6.9866,0,U,69488,999,259,-.36667017E-2,-.1203756E-1,.42465071E-3
STARLINK-37831,2026-131M,2026-06-20T06:00:02.000160,15.92134218,.0001029,97.2832,191.6832,70.2784,11.1314,0,U,69489,999,130,-.36897658E-2,-.1217739E-1,.43428605E-3
STARLINK-37879,2026-131N,2026-06-20T06:00:02.000160,15.92237303,.00010542,97.2832,191.6845,70.2748,13.8030,0,U,69490,999,250,-.36823804E-2,-.1221733E-1,.43737958E-3
STARLINK-37856,2026-131P,2026-06-20T06:00:02.000160,15.92303156,.00010863,97.2834,191.6854,77.9864,9.0790,0,U,69491,999,256,-.74188347E-2,-.2451436E-1,.16134621E-2
STARLINK-37568,2026-131Q,2026-06-20T06:00:02.000160,15.92442964,.00010416,97.2832,191.6868,71.1772,18.5707,0,U,69492,999,259,-.36894803E-2,-.1236994E-1,.44847482E-3
STARLINK-37855,2026-131R,2026-06-20T06:00:02.000160,15.92503348,.00009581,97.2830,191.6882,73.7644,19.2945,0,U,69493,999,256,-.22709109E-2,-.766321E-2,.184231E-3
STARLINK-37854,2026-131S,2026-06-20T06:00:02.000160,15.92608040,.00010994,97.2828,191.6892,78.2679,18.0507,0,U,69494,999,256,-.72759759E-2,-.2442449E-1,.16074359E-2
STARLINK-37789,2026-131T,2026-06-20T06:00:02.000160,15.92746356,.00010495,97.2830,191.6906,75.7410,23.4882,0,U,69495,999,258,-.37464443E-2,-.1275585E-1,.47616686E-3
STARLINK-37839,2026-131U,2026-06-20T06:00:02.000160,15.92911097,.00012215,97.2828,191.6929,71.5417,33.0042,0,U,69496,999,256,-.71611089E-2,-.2441978E-1,.16123048E-2
STARLINK-37798,2026-131V,2026-06-20T06:00:02.000160,15.92748125,.00010786,97.2830,191.6910,69.4019,29.8259,0,U,69497,999,256,-.3757405E-2,-.1279401E-1,.47881677E-3
STARLINK-37853,2026-131W,2026-06-20T06:00:02.000160,15.93342752,.00010376,97.2828,191.6967,76.9749,37.0164,0,U,69498,999,256,-.36339555E-2,-.1276221E-1,.47949819E-3
STARLINK-37849,2026-131X,2026-06-20T06:00:02.000160,15.93242996,.00010356,97.2829,191.6962,81.0229,30.8313,0,U,69499,999,258,-.36563544E-2,-.1277418E-1,.47984229E-3
STARLINK-37835,2026-131Y,2026-06-20T06:00:02.000160,15.93247052,.00010402,97.2828,191.6970,81.4051,30.4478,0,U,69500,999,149,-.36827575E-2,-.1286824E-1,.48642049E-3
STARLINK-37843,2026-131Z,2026-06-20T06:00:02.000160,15.93143837,.00010592,97.2829,191.6950,70.5107,38.9654,0,U,69501,999,256,-.36882369E-2,-.1281884E-1,.48246686E-3
2026-132A,2026-132A,2026-06-20T03:48:49.306464,14.99047776,.00127454,97.6900,234.7958,259.4184,100.5603,0,U,69502,999,122,.47591667E-4,.519E-5,0
2026-132B,2026-132B,2026-06-20T03:48:07.011072,14.99136734,.00126384,97.6931,234.7997,261.6727,98.3063,0,U,69503,999,122,.31000733E-4,.318E-5,0
BRO-22,2026-132C,2026-06-20T03:43:16.072032,14.99760987,.00141572,97.6869,234.7957,273.2873,86.6731,0,U,69504,999,122,.41515748E-4,.454E-5,0
2026-132D,2026-132D,2026-06-19T19:28:43.677696,15.02642594,.00145913,97.6854,234.4687,281.9794,77.9795,0,U,69505,999,117,.1159607E-3,.1487E-4,0
2026-132E,2026-132E,2026-06-20T03:34:36.193728,15.00887880,.00127464,97.6900,234.8097,295.9323,64.0587,0,U,69506,999,121,.12933126E-3,.1588E-4,0
2026-132F,2026-132F,2026-06-19T19:30:32.543424,15.01929219,.00132961,97.6860,234.4660,296.3475,63.6384,0,U,69507,999,116,.8776588E-5,.54E-6,0
STARLINK-37536,2026-133A,2026-06-20T06:00:02.000160,15.98678544,.00008218,53.1585,307.0915,68.2370,37.2340,0,U,69508,999,246,-.36476165E-2,-.1767067E-1,.92653391E-3
STARLINK-37341,2026-133B,2026-06-20T06:00:02.000160,15.98968372,.00007128,53.1586,307.0815,65.2813,44.9880,0,U,69509,999,246,-.35926049E-2,-.1769016E-1,.93138259E-3
STARLINK-36536,2026-133C,2026-06-20T06:00:02.000160,15.99309594,.00007161,53.1585,307.0707,76.2864,39.2583,0,U,69510,999,240,-.34883584E-2,-.1751389E-1,.9176577E-3
STARLINK-37420,2026-133D,2026-06-20T06:00:02.000160,16.00075895,.00006926,53.1580,307.0467,75.4876,51.3566,0,U,69511,999,235,-.32991191E-2,-.1730543E-1,.90513353E-3
STARLINK-37511,2026-133E,2026-06-20T06:00:02.000160,15.99704290,.00007083,53.1584,307.0588,71.7720,49.5407,0,U,69512,999,235,-.3383915E-2,-.1737664E-1,.90830406E-3
STARLINK-37552,2026-133F,2026-06-20T06:00:02.000160,16.00403141,.00007165,53.1580,307.0366,78.1198,53.8337,0,U,69513,999,235,-.32233534E-2,-.172294E-1,.90105043E-3
STARLINK-37607,2026-133G,2026-06-20T06:00:02.000160,16.00631170,.00008118,53.1582,307.0273,66.3345,69.8584,0,U,69514,999,235,-.31711029E-2,-.1717493E-1,.89806147E-3
